[{"OBJECT_NAME":"STARLINK-2635","OBJECT_ID":"2021-038C","EPOCH":"2026-03-09T04:23:02.281056","MEAN_MOTION":15.30190803,"ECCENTRICITY":0.00011052,"INCLINATION":53.1597,"RA_OF_ASC_NODE":0.4872,"ARG_OF_PERICENTER":106.6604,"MEAN_ANOMALY":253.4518,"EPHEMERIS_TYPE":0,"CLASSIFICATION_TYPE":"U","NORAD_CAT_ID":48355,"ELEMENT_SET_NO":999,"REV_AT_EPOCH":26700,"BSTAR":-0.00012431176,"MEAN_MOTION_DOT":-4.038e-5,"MEAN_MOTION_DDOT":0},{"OBJECT_NAME":"SL-3 R\/B","OBJECT_ID":"1981-065B","EPOCH":"2026-03-09T21:58:16.284000","MEAN_MOTION":15.33300883,"ECCENTRICITY":0.00117648,"INCLINATION":97.6337,"RA_OF_ASC_NODE":111.1786,"ARG_OF_PERICENTER":10.529,"MEAN_ANOMALY":349.6196,"EPHEMERIS_TYPE":0,"CLASSIFICATION_TYPE":"U","NORAD_CAT_ID":12586,"ELEMENT_SET_NO":999,"REV_AT_EPOCH":43499,"BSTAR":0.00030084921,"MEAN_MOTION_DOT":9.62e-5,"MEAN_MOTION_DDOT":0}]
